SL-3 R/B                
1 19046U 88032B   18246.51215646  .00000309  00000-0  27537-4 0  9992
2 19046  97.4757 284.0505 0036111 265.2648  94.4454 15.02478622639207
SL-16 R/B               
1 19120U 88039B   18246.08636732  .00000111  00000-0  75954-4 0  9994
2 19120  71.0142 109.0917 0023717 232.7702 127.1259 14.19190904569229
COSMOS 1953             
1 19210U 88050A   18246.49259880  .00000830  00000-0  55486-4 0  9993
2 19210  82.5186 323.4522 0013029 181.6064 178.5124 15.05614007644547
SL-8 R/B                
1 19257U 88053B   18245.93809588  .00000033  00000-0  19885-4 0  9999
2 19257  74.0487 122.5586 0021476 263.7710 192.5805 14.37406445582105
COSMOS 1975             
1 19573U 88093A   18246.19403159 -.00000168  00000-0 -14026-4 0  9990
2 19573  82.5180 276.7437 0013261 224.3113 135.7053 15.04524240626416
SL-14 R/B               
1 19574U 88093B   18246.16932980  .00000057  00000-0  39172-5 0  9992
2 19574  82.5296  90.8996 0023186  95.7100  43.5581 14.83273546615116
SL-16 R/B               
1 19650U 88102B   18246.22295002  .00000033  00000-0  41297-4 0  9996
2 19650  71.0008 163.5054 0016053 234.3653 125.5975 14.15776122538707
INTERCOSMOS 24          
1 20261U 89080A   18246.57648283  .00000183  00000-0  46873-4 0  9994
2 20261  82.5959  82.7830 1203838 154.1344 212.5381 12.56008397321623
SL-14 R/B               
1 20262U 89080C   18246.20139305  .00000002  00000-0 -15397-5 0  9994
2 20262  82.5941 132.3715 1236755 326.6299  26.2385 12.48901723317016
DELTA 1 R/B             
1 20323U 89089B   18245.85701907  .00000015  00000-0  12819-4 0  9992
2 20323  97.1023 127.2252 0072962 127.7266 233.0573 14.48268548518795
DELTA 2 R/B(1)          
1 20453U 90008B   18246.14518141  .00000448  00000-0  27612-4 0  9995
2 20453  35.6261 145.1990 0286109 256.1890 100.6835 14.84339908514030
COSMOS 2058             
1 20465U 90010A   18246.38933296  .00000198  00000-0  14542-4 0  9999
2 20465  82.4917 181.6404 0013975 239.2671 120.7176 14.97760872551678
SL-14 R/B               
1 20466U 90010B   18246.22813400  .00000050  00000-0  33591-5 0  9990
2 20466  82.5046 318.0569 0019615 327.0135  32.9853 14.81332357543087
SL-14 R/B               
1 20511U 90018B   18246.16192771  .00000081  00000-0  75509-5 0  9992
2 20511  82.5202 261.5757 0019056  99.7664 326.6854 14.79989555537589
HST                     
1 20580U 90037B   18246.21156757  .00000404  00000-0  13730-4 0  9995
2 20580  28.4700 319.3062 0002470 260.5283 129.5382 15.09087065357265
SL-16 R/B               
1 20625U 90046B   18246.21352426 -.00000271  00000-0 -11610-3 0  9994
2 20625  70.9977 299.3039 0013547 163.7826 196.3733 14.14631266460482
COSMOS 2084             
1 20663U 90055A   18246.18480194 -.00000072  00000-0  12033-4 0  9995
2 20663  62.7929 189.2453 0114830 134.3158 226.7423 14.91874579525898
SL-6 R/B(2)             
1 20666U 90055D   18246.15230222 -.00000055  00000-0  13316-4 0  9996
2 20666  62.7849 107.1530 0085691 156.1634 204.3466 14.92162176527277
SL-8 R/B                
1 20775U 90078B   18245.93912674  .00001050  00000-0  48902-4 0  9999
2 20775  82.9277  44.7164 0582734  56.4162 309.1262 14.32453730412122
SL-8 R/B                
1 21088U 91006B   18246.56913102  .00000144  00000-0  13030-3 0  9992
2 21088  82.9409  50.6188 0023105 156.0445 268.6714 13.77092874386624
OKEAN-3                 
1 21397U 91039A   18246.11546216  .00000210  00000-0  17813-4 0  9998
2 21397  82.5192  77.6081 0017529 191.0510 169.0328 14.92702653475858
COSMOS 2151             
1 21422U 91042A   18245.92754768  .00000139  00000-0  11243-4 0  9993
2 21422  82.5026 185.0789 0012603 254.9362 105.0464 14.91979094453439
SL-14 R/B               
1 21423U 91042B   18245.64697214  .00000082  00000-0  78156-5 0  9999
2 21423  82.4913 267.9287 0016278 238.4926 121.4697 14.79740951468016
ERS-1                   
1 21574U 91050A   18245.91578238  .00000010  00000-0  17619-4 0  9996
2 21574  98.5093 192.3921 0034212  74.2277 286.2679 14.37662675421210
ARIANE 40 R/B           
1 21610U 91050F   18245.82630747 -.00000018  00000-0  82828-5 0  9995
2 21610  98.5487 308.5954 0004234  69.6181  44.6535 14.40847566423855
INTERCOSMOS 25          
1 21819U 91086A   18245.41706733 -.00000605  00000-0 -12621-3 0  9994
2 21819  82.5989 157.8302 1515642 225.3897 121.3354 12.04937763165520
SL-14 R/B               
1 21820U 91086B   18245.93187217  .00000154  00000-0  23198-4 0  9992
2 21820  82.5598 217.2832 1577290  70.0159 306.3459 11.93397114159598
SL-8 R/B                
1 21876U 92008B   18245.85931019  .00000018  00000-0  29605-5 0  9995
2 21876  82.9289 148.2144 0033506 237.6171 190.1078 13.75630469332011
SL-8 R/B                
1 21938U 92020B   18245.92585787  .00000109  00000-0  97425-4 0  9998
2 21938  82.9308  31.7627 0029995  39.1703  77.2288 13.75266209323843
SL-16 R/B               
1 22220U 92076B   18246.19773753 -.00000257  00000-0 -10490-3 0  9998
2 22220  70.9994 206.7145 0014679 311.0865 140.2232 14.16434824333509
SL-16 R/B               
1 22285U 92093B   18246.54200074 -.00000264  00000-0 -11161-3 0  9992
2 22285  71.0242   2.2230 0004522 204.4910 155.5998 14.15026615325259
COSMOS 2228             
1 22286U 92094A   18245.77035307  .00000140  00000-0  12473-4 0  9992
2 22286  82.5216 316.6622 0022815  92.2972 268.0858 14.87964812388300
SL-16 R/B               
1 22566U 93016B   18246.18049967 -.00000070  00000-0 -11540-4 0  9999
2 22566  71.0066 217.0429 0010685 188.5656 171.5271 14.14948402313948
COSMOS 2242             
1 22626U 93024A   18245.82074709  .00000133  00000-0  11791-4 0  9993
2 22626  82.5247 344.4722 0020559  91.7832 268.5740 14.87829268371968
SL-16 R/B               
1 22803U 93059B   18245.90878937 -.00000145  00000-0 -48483-4 0  9995
2 22803  70.9908  36.5075 0015120  68.5589 291.7145 14.16797117290730
ARIANE 40 R/B           
1 22830U 93061H   18245.95169870 -.00000057  00000-0 -41331-5 0  9990
2 22830  98.8530 275.7471 0011938  76.7813 283.4700 14.31419507301336
COSMOS 2278             
1 23087U 94023A   18245.91442233  .00000145  00000-0  10141-3 0  9996
2 23087  71.0553 153.6463 0010968 262.4353  97.5523 14.13778766256824
SL-16 R/B               
1 23088U 94023B   18246.54957789  .00000162  00000-0  10898-3 0  9992
2 23088  70.9976  71.4990 0002901 184.1739 175.9359 14.14672433258241
SL-16 R/B               
1 23343U 94074B   18245.74634839 -.00000002  00000-0  72620-5 0  9998
2 23343  98.0975 290.7035 0008270  92.9055  19.9271 14.76742161281939
SL-16 R/B               
1 23405U 94077B   18245.89079516 -.00000189  00000-0 -72558-4 0  9997
2 23405  70.9850   4.6123 0003175 325.5033  34.5883 14.15199984227898
ERS-2                   
1 23560U 95021A   18245.93357273  .00000798  00000-0  38881-4 0  9998
2 23560  98.5289 302.8988 0002554 224.1088 135.9941 15.21950124242671
ARIANE 40+ R/B          
1 23561U 95021B   18246.12384131  .00000006  00000-0  17331-4 0  9993
2 23561  98.7905 262.5890 0007556  37.0577   8.7162 14.37886406224909
SL-16 R/B               
1 23705U 95058B   18246.23478945 -.00000255  00000-0 -10680-3 0  9999
2 23705  71.0209 179.4851 0013384 333.1810  26.8619 14.15110927179865
SL-16 R/B               
1 24298U 96051B   18246.19517776 -.00000162  00000-0 -61026-4 0  9990
2 24298  70.8297 208.2388 0018739 246.0213 113.8946 14.12409605134379
ORBVIEW 2 (SEASTAR)     
1 24883U 97037A   18245.87579744  .00000050  00000-0  34055-4 0  9998
2 24883  98.5674 354.2890 0001609 210.6255 149.4835 14.33466978115332
SL-16 R/B               
1 25400U 98043G   18245.86098797 -.00000025  00000-0  76828-5 0  9993
2 25400  98.5371 186.2626 0011097  82.7227 277.5214 14.25431504 48136
SL-16 R/B               
1 25407U 98045B   18245.93971966 -.00000013  00000-0  17514-4 0  9991
2 25407  71.0119 190.9882 0010061 256.8962 103.1038 14.15781392 38583
ISS (ZARYA)             
1 25544U 98067A   18246.74884328  .00001994  00000-0  37636-4 0  9997
2 25544  51.6430 347.1914 0005730 122.0449  23.8695 15.53925812130735
SL-8 R/B                
1 25723U 99022C   18246.18120140  .00004609  00000-0  60181-4 0  9998
2 25723  48.4157 313.2264 0008170  10.5363 349.5755 15.60676453 75558
CZ-4B R/B               
1 25732U 99025C   18245.92182838 -.00000031  00000-0  74219-5 0  9998
2 25732  98.9930 258.1448 0036325 271.5930 149.7103 14.17653340999261
OKEAN-O                 
1 25860U 99039A   18246.54431364  .00000032  00000-0  12283-4 0  9997
2 25860  98.2202 243.5257 0001635 107.4550 252.6838 14.76562434 29255
SL-16 R/B               
1 25861U 99039B   18245.99312722  .00000013  00000-0  92737-5 0  9994
2 25861  98.1592 226.8513 0017041  96.5856 312.3789 14.78492642 31203
TERRA                   
1 25994U 99068A   18246.26154260 -.00000002  00000-0  94992-5 0  9999
2 25994  98.1992 319.9788 0001140 105.5010 254.6309 14.57117927995198
ENVISAT                 
1 27386U 02009A   18246.53150795 -.00000011  00000-0  10003-4 0  9994
2 27386  98.1792 276.8771 0001338  88.1753  34.6047 14.37928798864784
IDEFIX & ARIANE 42P R/B 
1 27422U 02021B   18245.95132490 -.00000024  00000-0  64430-5 0  9994
2 27422  98.2627 227.4855 0012576  10.5213 349.6230 14.29265510851814
AQUA                    
1 27424U 02022A   18245.88629646  .00000065  00000-0  24444-4 0  9997
2 27424  98.1989 185.8943 0001542 157.0132 296.8638 14.57129945868690
CZ-4B R/B               
1 27432U 02024C   18245.90157528 -.00000023  00000-0  12123-4 0  9992
2 27432  99.0407 228.3672 0049745 220.1240 198.4231 14.14069195841280
MIDORI II (ADEOS-II)    
1 27597U 02056A   18245.95056572  .00000024  00000-0  26806-4 0  9994
2 27597  98.4283 203.2580 0002173  94.3508 265.7922 14.27362102818589
H-2A R/B                
1 27601U 02056E   18246.23827538 -.00000003  00000-0  13691-4 0  9996
2 27601  98.3206 302.3139 0073186  61.2404 342.9173 14.31853275821211
